{"type": "FeatureCollection", "features": [{"type": "Feature", "properties": {"name": "Australia"}, "geometry": {"type": "MultiPolygon", "coordinates": [[[[143.179, -11.954], [143.11, -12.304], [143.254, -12.398], [143.402, -12.64], [143.587, -13.444], [143.548, -13.741], [143.756, -14.349], [143.962, -14.463], [144.473, -14.232], [144.648, -14.492], [145.288, -14.943], [145.272, -15.477], [145.458, -16.056], [145.426, -16.406], [145.755, -16.879], [145.912, -16.913], [145.902, -17.07], [146.126, -17.635], [146.032, -18.273], [146.333, -18.554], [146.297, -18.841], [146.383, -18.977], [146.692, -19.187], [147.003, -19.256], [147.139, -19.393], [147.419, -19.378], [147.742, -19.77], [148.6, -20.145], [148.759, -20.29], [148.885, -20.481], [148.73, -20.468], [148.684, -20.58], [149.205, -21.125], [149.329, -21.476], [149.454, -21.579], [149.524, -22.024], [149.704, -22.441], [149.822, -22.39], [149.974, -22.551], [149.942, -22.308], [150.021, -22.168], [150.541, -22.559], [150.623, -22.367], [150.764, -22.576], [150.843, -23.458], [151.154, -23.784], [151.501, -24.012], [151.832, -24.123], [152.13, -24.598], [152.456, -24.802], [152.654, -25.202], [152.913, -25.432], [152.921, -25.689], [153.165, -25.964], [153.084, -26.304], [153.162, -26.983], [153.117, -27.194], [153.576, -28.241], [153.617, -28.673], [153.605, -28.854], [153.348, -29.29], [153.272, -29.892], [153.031, -30.563], [153.048, -30.907], [152.944, -31.435], [152.786, -31.786], [152.559, -32.046], [152.47, -32.439], [152.216, -32.678], [152.137, -32.678], [152.164, -32.757], [151.813, -32.901], [151.484, -33.347], [151.432, -33.522], [151.292, -33.581], [151.28, -33.927], [151.125, -34.005], [151.232, -34.03], [150.96, -34.297], [150.871, -34.499], [150.805, -35.013], [150.697, -35.042], [150.69, -35.178], [150.567, -35.214], [150.195, -35.834], [149.96, -36.846], [149.933, -37.529], [149.481, -37.771], [148.262, -37.831], [147.877, -37.934], [147.396, -38.219], [146.857, -38.663], [146.217, -38.727], [146.337, -38.894], [146.467, -38.84], [146.484, -39.065], [146.4, -39.146], [146.158, -38.866], [146.07, -38.834], [145.935, -38.902], [145.791, -38.667], [145.606, -38.657], [145.397, -38.535], [145.542, -38.394], [145.476, -38.244], [145.293, -38.238], [145.191, -38.384], [144.96, -38.501], [144.718, -38.34], [144.911, -38.344], [145.12, -38.091], [144.891, -37.9], [144.396, -38.137], [144.665, -38.21], [144.102, -38.462], [143.539, -38.821], [142.456, -38.386], [142.188, -38.399], [141.725, -38.271], [141.594, -38.388], [141.424, -38.363], [141.011, -38.077], [140.627, -38.028], [140.39, -37.897], [139.784, -37.246], [139.738, -37.06], [139.857, -36.662], [139.729, -36.371], [139.466, -36.01], [138.969, -35.581], [139.178, -35.523], [139.289, -35.611], [139.283, -35.375], [139.193, -35.347], [138.875, -35.537], [138.522, -35.642], [138.184, -35.613], [138.4, -35.326], [138.511, -35.024], [138.49, -34.764], [138.089, -34.17], [137.919, -34.456], [137.692, -35.143], [136.884, -35.24], [137.014, -34.916], [137.391, -34.913], [137.493, -34.598], [137.494, -34.161], [137.65, -33.859], [137.932, -33.579], [137.852, -33.201], [137.993, -33.094], [137.913, -32.771], [137.783, -32.578], [137.791, -32.823], [137.442, -33.194], [137.237, -33.629], [136.431, -34.03], [135.891, -34.661], [135.97, -34.982], [135.792, -34.863], [135.648, -34.94], [135.231, -34.58], [135.123, -34.586], [135.217, -34.487], [135.45, -34.581], [135.219, -33.96], [134.889, -33.626], [134.719, -33.255], [134.301, -33.165], [134.1, -32.749], [134.227, -32.731], [134.234, -32.549], [133.665, -32.207], [133.212, -32.184], [132.757, -31.956], [132.215, -32.007], [131.721, -31.696], [131.144, -31.496], [130.783, -31.604], [130.13, -31.579], [128.946, -31.703], [128.068, -32.067], [127.32, -32.264], [125.917, -32.297], [124.759, -32.883], [124.244, -33.015], [123.868, -33.596], [123.507, -33.916], [123.208, -33.988], [123.068, -33.901], [122.778, -33.891], [122.151, -33.992], [122.061, -33.874], [121.405, -33.827], [119.854, -33.975], [119.635, -34.101], [119.451, -34.368], [119.248, -34.456], [118.895, -34.48], [118.136, -34.987], [117.863, -35.055], [117.582, -35.098], [116.517, -34.988], [115.987, -34.795], [115.565, -34.426], [115.278, -34.304], [115.128, -34.342], [115.009, -34.256], [114.994, -33.515], [115.182, -33.643], [115.359, -33.64], [115.515, -33.531], [115.683, -33.193], [115.619, -32.667], [115.708, -32.568], [115.725, -32.401], [115.698, -31.695], [115.078, -30.56], [114.969, -30.042], [114.959, -29.434], [114.857, -29.143], [114.628, -28.872], [114.537, -28.543], [114.165, -28.081], [114.028, -27.347], [113.185, -26.182], [113.323, -26.244], [113.356, -26.08], [113.582, -26.558], [113.734, -26.595], [113.836, -26.501], [113.853, -26.332], [113.589, -26.099], [113.395, -25.713], [113.451, -25.599], [113.713, -25.831], [113.724, -26.13], [113.766, -26.16], [113.854, -26.014], [113.992, -26.321], [114.09, -26.394], [114.216, -26.289], [114.214, -25.852], [113.418, -24.436], [113.49, -23.87], [113.757, -23.418], [113.795, -22.915], [113.683, -22.638], [114.023, -21.881], [114.124, -21.829], [114.143, -21.91], [114.093, -22.181], [114.164, -22.323], [114.142, -22.483], [114.378, -22.342], [114.709, -21.823], [115.456, -21.492], [116.011, -21.03], [116.707, -20.654], [117.139, -20.641], [117.406, -20.721], [118.199, -20.375], [118.751, -20.262], [119.104, -19.995], [119.586, -20.038], [120.434, -19.842], [120.998, -19.604], [121.338, -19.32], [121.834, -18.477], [122.345, -18.112], [122.361, -18.037], [122.237, -17.969], [122.147, -17.549], [122.16, -17.314], [122.261, -17.136], [122.72, -16.788], [122.917, -16.433], [122.971, -16.437], [123.142, -16.863], [123.563, -17.521], [123.594, -17.03], [123.831, -17.121], [123.874, -16.919], [123.49, -16.491], [123.626, -16.416], [123.607, -16.224], [123.729, -16.192], [123.859, -16.382], [124.044, -16.265], [124.3, -16.388], [124.772, -16.403], [124.405, -16.299], [124.416, -16.133], [124.577, -16.114], [124.649, -15.87], [124.607, -15.823], [124.504, -15.972], [124.382, -15.758], [124.44, -15.494], [124.562, -15.496], [124.693, -15.274], [125.063, -15.442], [125.073, -15.307], [124.909, -15.31], [124.839, -15.161], [125.038, -15.004], [125.356, -15.12], [125.384, -15.016], [125.243, -14.945], [125.179, -14.715], [125.285, -14.584], [125.58, -14.483], [125.628, -14.257], [125.705, -14.291], [125.662, -14.529], [125.738, -14.444], [125.82, -14.469], [125.891, -14.618], [126.021, -14.495], [126.111, -14.114], [126.054, -13.977], [126.184, -14.002], [126.258, -14.164], [126.403, -14.019], [126.57, -14.161], [126.781, -13.955], [126.776, -13.788], [126.903, -13.744], [127.458, -14.031], [128.199, -14.752], [128.069, -15.329], [128.155, -15.226], [128.255, -15.299], [128.175, -15.043], [128.41, -14.829], [128.576, -14.775], [129.058, -14.884], [129.216, -15.16], [129.268, -14.871], [129.459, -14.933], [129.635, -15.14], [129.637, -14.851], [129.849, -14.829], [129.605, -14.647], [129.698, -14.557], [129.379, -14.392], [129.459, -14.213], [129.71, -13.98], [129.839, -13.573], [130.136, -13.448], [130.26, -13.302], [130.135, -13.146], [130.168, -12.957], [130.318, -12.883], [130.4, -12.688], [130.617, -12.647], [130.623, -12.431], [130.736, -12.428], [130.867, -12.558], [130.874, -12.367], [131.023, -12.343], [131.02, -12.214], [131.22, -12.178], [131.292, -12.068], [131.438, -12.277], [131.888, -12.232], [132.064, -12.281], [132.253, -12.186], [132.411, -12.295], [132.511, -12.135], [132.713, -12.123], [132.63, -12.035], [132.674, -11.649], [132.475, -11.492], [132.073, -11.475], [131.822, -11.302], [131.962, -11.181], [132.155, -11.311], [132.263, -11.204], [132.334, -11.224], [132.683, -11.506], [132.857, -11.391], [132.961, -11.407], [133.185, -11.706], [133.533, -11.816], [133.904, -11.832], [134.417, -12.053], [134.73, -11.984], [135.03, -12.194], [135.218, -12.222], [135.922, -11.826], [135.834, -11.951], [135.889, -11.993], [135.704, -12.21], [136.008, -12.191], [136.082, -12.422], [136.261, -12.434], [136.329, -12.306], [136.27, -12.132], [136.443, -11.951], [136.54, -11.958], [136.61, -12.134], [136.719, -12.226], [136.897, -12.244], [136.947, -12.35], [136.537, -12.784], [136.594, -13.004], [136.461, -13.225], [136.294, -13.138], [135.927, -13.304], [135.954, -13.935], [135.883, -14.153], [135.405, -14.758], [135.453, -14.923], [136.205, -15.403], [136.291, -15.57], [136.584, -15.707], [136.705, -15.685], [136.698, -15.835], [136.785, -15.894], [137.002, -15.878], [137.704, -16.233], [138.245, -16.718], [139.01, -16.899], [139.248, -17.329], [140.036, -17.703], [140.511, -17.625], [140.83, -17.414], [140.966, -17.015], [141.219, -16.646], [141.412, -16.07], [141.452, -15.605], [141.625, -15.057], [141.523, -14.47], [141.594, -14.153], [141.473, -13.798], [141.645, -13.259], [141.614, -12.943], [141.782, -12.779], [141.92, -12.803], [141.852, -12.579], [141.678, -12.491], [141.689, -12.351], [141.871, -11.976], [141.961, -12.054], [142.168, -10.947], [142.326, -10.884], [142.456, -10.707], [142.605, -10.748], [142.553, -10.874], [142.723, -11.01], [142.837, -11.307], [142.873, -11.821], [143.179, -11.954]]], [[[145.043, -40.787], [145.283, -40.77], [145.821, -41.025], [146.317, -41.163], [146.723, -41.078], [146.848, -41.168], [146.857, -41.058], [146.99, -40.992], [147.455, -41.002], [147.622, -40.845], [147.873, -40.873], [147.969, -40.78], [148.215, -40.855], [148.293, -40.947], [148.343, -42.215], [148.29, -42.255], [148.277, -42.136], [148.183, -42.065], [148.214, -41.97], [148.023, -42.259], [147.912, -42.658], [147.981, -43.157], [147.786, -43.22], [147.648, -43.021], [147.774, -43.003], [147.8, -42.928], [147.574, -42.846], [147.537, -42.996], [147.452, -43.033], [147.298, -42.791], [147.348, -42.927], [147.245, -43.216], [147.173, -43.256], [146.997, -43.156], [147.077, -43.276], [146.874, -43.612], [146.549, -43.509], [146.043, -43.547], [145.994, -43.376], [146.208, -43.316], [145.873, -43.292], [145.488, -42.927], [145.268, -42.544], [145.199, -42.231], [145.468, -42.493], [145.517, -42.354], [145.331, -42.147], [145.235, -42.197], [145.238, -42.02], [144.766, -41.39], [144.646, -40.981], [144.719, -40.672], [145.043, -40.787]]]]}}]}