{"type": "FeatureCollection", "features": [{"type": "Feature", "properties": {"name": "Austria"}, "geometry": {"type": "MultiPolygon", "coordinates": [[[[9.528, 47.271], [9.626, 47.467], [9.524, 47.524], [9.749, 47.576], [10.2, 47.363], [10.183, 47.279], [10.369, 47.366], [10.439, 47.552], [10.873, 47.52], [11.042, 47.393], [11.717, 47.583], [12.186, 47.62], [12.209, 47.718], [12.483, 47.637], [12.686, 47.669], [12.809, 47.542], [13.014, 47.478], [13.054, 47.655], [12.898, 47.722], [12.954, 47.891], [12.76, 48.076], [12.814, 48.161], [13.375, 48.361], [13.487, 48.582], [13.724, 48.542], [13.815, 48.767], [14.049, 48.602], [14.691, 48.599], [14.822, 48.774], [14.923, 48.771], [14.993, 49.001], [15.825, 48.864], [16.057, 48.755], [16.544, 48.796], [16.884, 48.704], [16.953, 48.599], [16.865, 48.387], [17.147, 48.006], [17.03, 47.837], [17.067, 47.708], [16.786, 47.679], [16.591, 47.751], [16.421, 47.674], [16.64, 47.609], [16.677, 47.536], [16.623, 47.448], [16.443, 47.4], [16.461, 47.022], [16.037, 46.845], [15.958, 46.678], [15.76, 46.711], [14.893, 46.606], [14.55, 46.4], [12.479, 46.673], [12.154, 46.935], [12.169, 47.082], [11.776, 46.986], [11.244, 46.976], [10.927, 46.769], [10.479, 46.855], [10.349, 46.985], [10.133, 46.852], [9.878, 46.938], [9.845, 47.007], [9.58, 47.057], [9.528, 47.271]]]]}}]}