{"type": "FeatureCollection", "features": [{"type": "Feature", "properties": {"name": "France"}, "geometry": {"type": "MultiPolygon", "coordinates": [[[[7.616, 47.593], [7.343, 47.433], [7.136, 47.49], [6.968, 47.453], [6.9, 47.394], [7.001, 47.323], [6.667, 47.027], [6.456, 46.948], [6.41, 46.755], [6.161, 46.611], [6.068, 46.459], [6.096, 46.279], [5.97, 46.215], [6.007, 46.142], [6.199, 46.193], [6.273, 46.252], [6.235, 46.333], [6.429, 46.431], [6.776, 46.407], [6.772, 46.165], [7.021, 45.926], [6.804, 45.815], [6.791, 45.741], [7.153, 45.401], [7.078, 45.24], [6.692, 45.144], [6.635, 45.068], [6.738, 44.921], [6.993, 44.827], [7.031, 44.717], [6.843, 44.511], [6.9, 44.336], [7.319, 44.138], [7.637, 44.165], [7.677, 44.083], [7.482, 43.865], [7.493, 43.767], [6.717, 43.374], [6.57, 43.199], [6.116, 43.072], [5.407, 43.229], [5.32, 43.345], [5.073, 43.367], [5.06, 43.445], [4.712, 43.373], [4.224, 43.48], [4.053, 43.593], [3.911, 43.563], [3.259, 43.193], [3.052, 42.915], [3.091, 42.591], [3.211, 42.431], [2.891, 42.456], [2.652, 42.34], [2.2, 42.421], [2.033, 42.354], [1.706, 42.503], [1.71, 42.604], [1.428, 42.596], [1.349, 42.691], [0.764, 42.838], [0.67, 42.836], [0.632, 42.69], [-0.041, 42.689], [-0.299, 42.825], [-0.586, 42.799], [-0.763, 42.94], [-1.3, 43.101], [-1.461, 43.052], [-1.411, 43.24], [-1.713, 43.307], [-1.794, 43.407], [-1.631, 43.438], [-1.485, 43.564], [-1.246, 44.56], [-1.077, 44.69], [-1.153, 44.764], [-1.245, 44.667], [-1.081, 45.532], [-0.826, 45.381], [-0.691, 45.093], [-0.548, 45.001], [-0.791, 45.468], [-1.196, 45.714], [-1.21, 45.771], [-1.032, 45.741], [-1.146, 46.311], [-1.787, 46.515], [-2.059, 46.81], [-2.09, 46.921], [-2.019, 47.038], [-2.197, 47.163], [-2.028, 47.274], [-1.743, 47.216], [-1.975, 47.311], [-2.503, 47.312], [-2.53, 47.382], [-2.428, 47.471], [-2.77, 47.514], [-2.733, 47.602], [-2.787, 47.626], [-2.964, 47.601], [-3.901, 47.838], [-4.312, 47.823], [-4.428, 47.969], [-4.679, 48.04], [-4.329, 48.17], [-4.577, 48.29], [-4.241, 48.304], [-4.719, 48.363], [-4.763, 48.45], [-4.721, 48.54], [-4.531, 48.62], [-3.715, 48.71], [-3.231, 48.841], [-3.003, 48.791], [-2.692, 48.537], [-2.446, 48.648], [-2.079, 48.645], [-2.004, 48.582], [-1.906, 48.697], [-1.825, 48.631], [-1.376, 48.653], [-1.565, 48.806], [-1.583, 49.202], [-1.813, 49.49], [-1.856, 49.684], [-1.259, 49.68], [-1.232, 49.495], [-1.139, 49.388], [-0.163, 49.297], [0.417, 49.448], [0.129, 49.508], [0.187, 49.703], [1.246, 49.998], [1.593, 50.252], [1.579, 50.739], [1.672, 50.885], [2.525, 51.097], [2.597, 50.876], [2.759, 50.751], [2.84, 50.712], [3.107, 50.779], [3.273, 50.532], [3.595, 50.477], [3.689, 50.306], [3.95, 50.336], [4.175, 50.246], [4.176, 49.96], [4.545, 49.96], [4.819, 50.153], [4.79, 49.96], [4.868, 49.788], [5.279, 49.678], [5.507, 49.511], [5.79, 49.538], [6.011, 49.445], [6.242, 49.494], [6.534, 49.395], [6.735, 49.161], [6.891, 49.208], [7.037, 49.113], [7.451, 49.152], [7.611, 49.062], [8.135, 48.974], [8.14, 48.886], [7.838, 48.636], [7.617, 48.157], [7.529, 47.674], [7.616, 47.593]]], [[[9.48, 42.805], [9.551, 42.13], [9.186, 41.385], [8.808, 41.588], [8.887, 41.701], [8.718, 41.761], [8.74, 41.925], [8.622, 41.931], [8.701, 42.096], [8.588, 42.161], [8.566, 42.219], [8.675, 42.284], [8.566, 42.358], [8.815, 42.608], [9.138, 42.733], [9.313, 42.713], [9.363, 43.017], [9.463, 42.981], [9.48, 42.805]]]]}}]}