{"type": "FeatureCollection", "features": [{"type": "Feature", "properties": {"name": "Germany"}, "geometry": {"type": "MultiPolygon", "coordinates": [[[[9.524, 47.524], [9.183, 47.671], [8.881, 47.656], [8.573, 47.776], [8.403, 47.688], [8.567, 47.652], [8.454, 47.596], [7.565, 47.607], [7.617, 48.157], [7.838, 48.636], [8.14, 48.886], [8.135, 48.974], [7.611, 49.062], [7.451, 49.152], [7.037, 49.113], [6.891, 49.208], [6.735, 49.161], [6.534, 49.395], [6.344, 49.453], [6.487, 49.798], [6.256, 49.872], [6.108, 50.094], [6.175, 50.233], [6.364, 50.316], [6.341, 50.452], [6.179, 50.523], [6.236, 50.597], [5.994, 50.75], [6.048, 50.905], [5.858, 51.03], [6.13, 51.147], [6.076, 51.224], [6.199, 51.45], [5.949, 51.803], [6.167, 51.881], [6.356, 51.825], [6.742, 51.911], [6.802, 51.98], [6.725, 52.08], [7.02, 52.266], [7.002, 52.419], [6.692, 52.53], [6.748, 52.634], [7.033, 52.651], [7.179, 52.966], [7.197, 53.282], [7.053, 53.376], [7.206, 53.655], [8.009, 53.691], [8.167, 53.543], [8.108, 53.468], [8.245, 53.445], [8.334, 53.606], [8.493, 53.514], [8.495, 53.394], [8.528, 53.781], [8.619, 53.875], [9.206, 53.856], [9.585, 53.6], [9.784, 53.555], [9.631, 53.6], [9.312, 53.859], [8.978, 53.926], [8.904, 54.0], [8.907, 54.261], [8.645, 54.295], [8.648, 54.398], [8.952, 54.468], [8.957, 54.538], [8.682, 54.792], [8.67, 54.903], [9.255, 54.808], [9.616, 54.855], [10.022, 54.674], [10.029, 54.581], [9.869, 54.472], [10.143, 54.488], [10.212, 54.409], [10.36, 54.438], [10.732, 54.316], [11.013, 54.379], [11.064, 54.281], [11.009, 54.181], [10.811, 54.075], [10.918, 53.995], [11.4, 53.945], [11.796, 54.145], [12.111, 54.168], [12.575, 54.467], [13.029, 54.411], [13.448, 54.141], [13.724, 54.153], [13.866, 53.853], [14.259, 53.73], [14.411, 53.199], [14.129, 52.878], [14.619, 52.529], [14.555, 52.36], [14.753, 52.082], [14.602, 51.832], [14.739, 51.627], [14.725, 51.524], [14.936, 51.435], [15.017, 51.253], [14.964, 51.095], [14.767, 50.818], [14.614, 50.856], [14.546, 50.994], [14.32, 51.038], [14.256, 51.002], [14.369, 50.899], [13.557, 50.705], [12.943, 50.406], [12.549, 50.393], [12.277, 50.181], [12.135, 50.311], [12.09, 50.269], [12.208, 50.098], [12.512, 49.896], [12.391, 49.74], [12.632, 49.461], [13.77, 48.816], [13.785, 48.587], [13.675, 48.523], [13.487, 48.582], [13.375, 48.361], [12.76, 48.107], [12.954, 47.891], [12.898, 47.722], [13.054, 47.655], [13.014, 47.478], [12.809, 47.542], [12.686, 47.669], [12.483, 47.637], [12.209, 47.718], [12.186, 47.62], [11.717, 47.583], [11.042, 47.393], [10.873, 47.52], [10.439, 47.552], [10.369, 47.366], [10.183, 47.279], [10.2, 47.363], [10.066, 47.393], [9.972, 47.505], [9.749, 47.576], [9.524, 47.524]]]]}}]}