{"type": "FeatureCollection", "features": [{"type": "Feature", "properties": {"name": "Italy"}, "geometry": {"type": "MultiPolygon", "coordinates": [[[[7.021, 45.926], [7.129, 45.88], [7.539, 45.978], [7.788, 45.922], [8.125, 46.161], [8.096, 46.271], [8.423, 46.446], [8.458, 46.246], [8.819, 46.077], [8.778, 45.996], [8.954, 45.83], [9.047, 45.876], [9.003, 46.015], [9.251, 46.287], [9.304, 46.496], [9.428, 46.482], [9.529, 46.306], [9.939, 46.362], [10.081, 46.228], [10.145, 46.254], [10.038, 46.483], [10.087, 46.6], [10.431, 46.55], [10.453, 46.865], [10.993, 46.777], [11.244, 46.976], [11.776, 46.986], [12.169, 47.082], [12.154, 46.935], [12.388, 46.703], [13.7, 46.52], [13.378, 46.262], [13.633, 46.177], [13.488, 45.987], [13.601, 45.98], [13.583, 45.812], [13.875, 45.615], [13.72, 45.588], [13.783, 45.627], [13.628, 45.771], [13.465, 45.71], [13.206, 45.771], [12.761, 45.544], [12.498, 45.462], [12.432, 45.468], [12.492, 45.546], [12.274, 45.446], [12.226, 45.242], [12.523, 44.968], [12.384, 44.798], [12.279, 44.832], [12.248, 44.723], [12.396, 44.224], [12.691, 43.995], [13.564, 43.571], [14.01, 42.69], [14.541, 42.244], [15.169, 41.934], [16.165, 41.896], [16.151, 41.758], [15.914, 41.621], [15.9, 41.512], [17.103, 41.062], [17.955, 40.655], [18.461, 40.221], [18.486, 40.105], [18.393, 39.904], [18.344, 39.821], [18.078, 39.937], [17.865, 40.28], [17.396, 40.34], [17.18, 40.503], [16.928, 40.458], [16.67, 40.137], [16.522, 39.748], [16.598, 39.639], [16.824, 39.578], [17.115, 39.381], [17.175, 38.998], [17.099, 38.919], [16.951, 38.94], [16.617, 38.8], [16.546, 38.409], [16.282, 38.25], [16.057, 37.942], [15.725, 37.939], [15.643, 38.175], [15.822, 38.303], [15.927, 38.672], [16.197, 38.759], [16.21, 38.941], [16.107, 39.024], [16.024, 39.354], [15.693, 39.99], [15.295, 40.07], [14.951, 40.239], [14.948, 40.469], [14.766, 40.668], [14.34, 40.599], [14.461, 40.729], [14.309, 40.813], [14.044, 40.812], [13.733, 41.236], [13.247, 41.289], [13.089, 41.244], [12.631, 41.47], [12.075, 41.941], [11.807, 42.082], [11.637, 42.288], [11.296, 42.423], [11.103, 42.417], [11.185, 42.457], [11.168, 42.535], [10.708, 42.936], [10.515, 42.968], [10.521, 43.204], [10.321, 43.513], [10.246, 43.852], [10.048, 44.02], [9.289, 44.319], [8.766, 44.422], [8.552, 44.346], [8.005, 43.877], [7.493, 43.767], [7.482, 43.865], [7.677, 44.083], [7.637, 44.165], [7.319, 44.138], [6.9, 44.336], [6.843, 44.511], [7.031, 44.717], [6.993, 44.827], [6.738, 44.921], [6.635, 45.068], [6.692, 45.144], [7.078, 45.24], [7.146, 45.382], [6.791, 45.741], [6.804, 45.815], [7.021, 45.926]], [[12.439, 41.898], [12.439, 41.898]], [[12.485, 43.901], [12.504, 43.99], [12.397, 43.935], [12.485, 43.901]]], [[[15.577, 38.22], [15.234, 37.785], [15.1, 37.459], [15.296, 37.055], [15.142, 36.892], [15.113, 36.688], [14.502, 36.799], [14.367, 36.973], [14.143, 37.104], [13.905, 37.101], [13.17, 37.479], [12.64, 37.594], [12.436, 37.82], [12.548, 38.053], [12.734, 38.183], [12.903, 38.035], [13.16, 38.19], [13.352, 38.181], [13.789, 37.981], [14.506, 38.046], [14.79, 38.167], [15.119, 38.153], [15.499, 38.291], [15.635, 38.268], [15.577, 38.22]]], [[[9.632, 40.882], [9.805, 40.5], [9.643, 40.268], [9.707, 40.017], [9.562, 39.166], [9.056, 39.239], [8.967, 38.964], [8.649, 38.927], [8.418, 39.206], [8.399, 39.482], [8.548, 39.839], [8.408, 39.917], [8.471, 40.293], [8.19, 40.652], [8.224, 40.913], [8.572, 40.85], [8.821, 40.95], [9.228, 41.257], [9.615, 41.017], [9.554, 40.932], [9.632, 40.882]]]]}}]}