{"type": "FeatureCollection", "features": [{"type": "Feature", "properties": {"name": "Portugal"}, "geometry": {"type": "MultiPolygon", "coordinates": [[[[-8.777, 41.941], [-8.266, 42.137], [-8.13, 42.018], [-8.225, 41.896], [-8.152, 41.812], [-7.921, 41.884], [-7.404, 41.834], [-7.147, 41.981], [-6.618, 41.942], [-6.542, 41.673], [-6.308, 41.642], [-6.213, 41.532], [-6.916, 41.038], [-6.81, 40.343], [-7.033, 40.168], [-6.896, 40.022], [-6.975, 39.798], [-7.118, 39.682], [-7.536, 39.662], [-7.335, 39.465], [-7.172, 39.135], [-6.998, 39.056], [-7.046, 38.907], [-7.282, 38.715], [-7.343, 38.457], [-7.106, 38.181], [-6.958, 38.188], [-7.023, 38.045], [-7.185, 38.006], [-7.444, 37.728], [-7.504, 37.585], [-7.406, 37.179], [-7.834, 37.006], [-8.598, 37.121], [-8.998, 37.032], [-8.814, 37.431], [-8.792, 37.733], [-8.879, 37.959], [-8.802, 38.184], [-8.881, 38.447], [-8.668, 38.424], [-8.799, 38.518], [-9.213, 38.448], [-9.25, 38.657], [-9.021, 38.747], [-8.938, 38.998], [-8.792, 39.078], [-8.954, 39.016], [-9.136, 38.743], [-9.474, 38.731], [-9.375, 39.338], [-9.148, 39.543], [-8.838, 40.116], [-8.873, 40.259], [-8.685, 40.753], [-8.66, 41.086], [-8.806, 41.56], [-8.755, 41.698], [-8.888, 41.765], [-8.777, 41.941]]]]}}]}