{"type": "FeatureCollection", "features": [{"type": "Feature", "properties": {"name": "South Africa"}, "geometry": {"type": "MultiPolygon", "coordinates": [[[[29.365, -22.194], [29.663, -22.146], [30.19, -22.291], [30.916, -22.291], [31.288, -22.402], [31.546, -23.482], [31.8, -23.892], [31.967, -24.376], [31.948, -25.958], [31.871, -25.982], [31.415, -25.747], [31.207, -25.843], [30.803, -26.413], [30.807, -26.785], [30.883, -26.792], [31.063, -27.112], [31.274, -27.238], [31.743, -27.31], [31.958, -27.306], [31.995, -26.817], [32.886, -26.849], [32.535, -28.2], [32.375, -28.498], [32.027, -28.84], [31.778, -28.937], [31.335, -29.378], [30.289, -30.97], [28.856, -32.294], [27.861, -33.054], [27.077, -33.521], [26.614, -33.707], [26.429, -33.76], [25.806, -33.737], [25.652, -33.85], [25.638, -34.011], [25.574, -34.035], [25.003, -33.974], [24.827, -34.169], [24.596, -34.175], [23.698, -33.993], [23.268, -34.081], [22.554, -34.01], [22.246, -34.069], [21.789, -34.373], [20.99, -34.367], [20.53, -34.463], [20.021, -34.786], [19.635, -34.753], [19.298, -34.615], [19.331, -34.492], [19.098, -34.35], [18.831, -34.364], [18.809, -34.108], [18.752, -34.083], [18.5, -34.109], [18.462, -34.347], [18.333, -34.074], [18.354, -33.939], [18.465, -33.888], [18.433, -33.717], [18.261, -33.422], [17.993, -33.152], [17.851, -32.827], [17.965, -32.709], [18.037, -32.775], [18.125, -32.749], [18.325, -32.505], [18.211, -31.742], [17.347, -30.445], [16.95, -29.403], [16.448, -28.618], [16.756, -28.452], [16.875, -28.128], [17.056, -28.031], [17.359, -28.269], [17.348, -28.501], [17.448, -28.698], [18.103, -28.872], [19.246, -28.902], [19.271, -28.778], [19.54, -28.575], [19.98, -28.451], [19.98, -24.777], [20.431, -25.147], [20.793, -25.916], [20.815, -26.165], [20.627, -26.444], [20.685, -26.822], [21.695, -26.841], [21.788, -26.71], [22.091, -26.58], [22.218, -26.389], [22.598, -26.133], [22.879, -25.458], [23.058, -25.312], [23.389, -25.291], [23.894, -25.601], [24.748, -25.817], [25.444, -25.714], [25.584, -25.606], [25.912, -24.747], [26.397, -24.614], [26.835, -24.241], [26.987, -23.705], [27.146, -23.524], [27.758, -23.197], [28.21, -22.694], [28.84, -22.481], [29.13, -22.213], [29.365, -22.194]], [[28.737, -30.102], [29.098, -29.919], [29.142, -29.701], [29.294, -29.567], [29.391, -29.27], [29.301, -29.09], [28.626, -28.582], [27.736, -28.94], [27.295, -29.519], [27.057, -29.626], [27.388, -30.316], [27.753, -30.6], [28.057, -30.631], [28.392, -30.148], [28.737, -30.102]]]]}}]}