{"type": "FeatureCollection", "features": [{"type": "Feature", "properties": {"name": "Spain"}, "geometry": {"type": "MultiPolygon", "coordinates": [[[[-1.794, 43.407], [-1.713, 43.307], [-1.411, 43.24], [-1.48, 43.071], [-1.429, 43.037], [-1.3, 43.101], [-0.763, 42.94], [-0.586, 42.799], [-0.299, 42.825], [-0.041, 42.689], [0.632, 42.69], [0.697, 42.845], [1.349, 42.691], [1.449, 42.437], [1.706, 42.503], [1.987, 42.358], [2.2, 42.421], [2.652, 42.34], [2.891, 42.456], [3.211, 42.431], [3.307, 42.289], [3.166, 42.256], [3.248, 41.944], [2.083, 41.287], [1.033, 41.062], [0.715, 40.823], [0.891, 40.722], [0.596, 40.615], [-0.327, 39.52], [-0.205, 39.063], [0.202, 38.759], [-0.521, 38.317], [-0.815, 37.77], [-0.722, 37.631], [-1.328, 37.561], [-1.641, 37.387], [-2.112, 36.777], [-2.453, 36.831], [-2.788, 36.715], [-4.367, 36.718], [-4.674, 36.506], [-5.171, 36.424], [-5.361, 36.135], [-5.444, 36.151], [-5.463, 36.074], [-5.625, 36.026], [-6.041, 36.188], [-6.226, 36.426], [-6.269, 36.597], [-6.384, 36.637], [-6.412, 36.729], [-6.217, 36.914], [-6.396, 36.832], [-6.885, 37.194], [-6.864, 37.279], [-6.975, 37.198], [-7.406, 37.179], [-7.504, 37.585], [-7.444, 37.728], [-7.185, 38.006], [-7.023, 38.045], [-6.958, 38.188], [-7.106, 38.181], [-7.343, 38.457], [-7.282, 38.715], [-7.046, 38.907], [-6.998, 39.056], [-7.172, 39.135], [-7.335, 39.465], [-7.536, 39.662], [-7.118, 39.682], [-6.975, 39.798], [-6.896, 40.022], [-7.033, 40.168], [-6.81, 40.343], [-6.916, 41.038], [-6.213, 41.532], [-6.308, 41.642], [-6.542, 41.673], [-6.618, 41.942], [-7.147, 41.981], [-7.404, 41.834], [-7.921, 41.884], [-8.152, 41.812], [-8.225, 41.896], [-8.13, 42.018], [-8.266, 42.137], [-8.852, 41.927], [-8.887, 42.105], [-8.691, 42.274], [-8.816, 42.285], [-8.73, 42.412], [-8.812, 42.47], [-8.812, 42.64], [-9.033, 42.594], [-8.927, 42.799], [-9.235, 42.977], [-9.178, 43.174], [-8.874, 43.334], [-8.537, 43.337], [-8.249, 43.439], [-8.257, 43.58], [-7.698, 43.765], [-7.061, 43.554], [-5.847, 43.645], [-4.523, 43.416], [-3.605, 43.519], [-3.046, 43.372], [-2.875, 43.454], [-2.337, 43.328], [-1.794, 43.407]]]]}}]}