{"type": "FeatureCollection", "features": [{"type": "Feature", "properties": {"name": "United States of America"}, "geometry": {"type": "MultiPolygon", "coordinates": [[[[-74.709, 45.004], [-71.518, 45.008], [-71.327, 45.29], [-71.135, 45.263], [-71.0, 45.337], [-70.865, 45.271], [-70.799, 45.405], [-70.69, 45.428], [-70.702, 45.551], [-70.296, 45.906], [-70.248, 46.251], [-70.067, 46.441], [-70.008, 46.709], [-69.243, 47.463], [-69.05, 47.427], [-69.049, 47.274], [-68.937, 47.211], [-68.235, 47.346], [-67.807, 47.083], [-67.802, 45.728], [-67.433, 45.603], [-67.473, 45.276], [-67.315, 45.154], [-67.125, 45.169], [-67.107, 44.885], [-66.987, 44.828], [-67.191, 44.676], [-67.364, 44.697], [-67.653, 44.562], [-67.839, 44.576], [-67.907, 44.454], [-68.057, 44.384], [-68.117, 44.491], [-68.246, 44.515], [-68.374, 44.445], [-68.451, 44.508], [-68.533, 44.259], [-68.812, 44.339], [-68.71, 44.443], [-68.795, 44.454], [-68.763, 44.571], [-68.961, 44.434], [-69.137, 44.038], [-69.521, 43.897], [-69.557, 43.983], [-69.624, 43.881], [-69.653, 43.994], [-69.73, 43.852], [-69.795, 43.911], [-69.808, 43.772], [-70.062, 43.835], [-70.269, 43.672], [-70.203, 43.626], [-70.521, 43.349], [-70.829, 42.825], [-70.736, 42.669], [-70.613, 42.623], [-70.831, 42.553], [-71.046, 42.331], [-70.738, 42.229], [-70.618, 42.04], [-70.656, 41.987], [-70.427, 41.757], [-70.295, 41.729], [-70.001, 41.826], [-70.11, 42.03], [-70.237, 42.071], [-70.109, 42.078], [-69.978, 41.961], [-69.949, 41.677], [-70.657, 41.534], [-70.701, 41.715], [-71.169, 41.489], [-71.204, 41.641], [-71.149, 41.746], [-71.271, 41.681], [-71.39, 41.795], [-71.364, 41.703], [-71.523, 41.379], [-72.925, 41.285], [-73.583, 41.022], [-73.987, 40.751], [-73.872, 41.055], [-73.97, 41.25], [-73.927, 40.914], [-74.264, 40.529], [-74.242, 40.456], [-73.998, 40.452], [-73.972, 40.4], [-74.08, 39.788], [-74.096, 39.976], [-74.176, 39.727], [-74.331, 39.536], [-74.407, 39.549], [-74.429, 39.387], [-74.603, 39.293], [-74.794, 39.002], [-74.954, 38.95], [-74.897, 39.145], [-75.136, 39.208], [-75.524, 39.49], [-75.422, 39.79], [-75.154, 39.871], [-75.074, 39.983], [-75.401, 39.832], [-75.588, 39.641], [-75.392, 39.093], [-75.089, 38.778], [-75.187, 38.591], [-75.073, 38.579], [-75.039, 38.426], [-75.074, 38.366], [-75.117, 38.406], [-75.16, 38.255], [-75.354, 38.065], [-75.587, 37.559], [-75.812, 37.425], [-75.934, 37.152], [-75.975, 37.398], [-75.659, 37.954], [-75.851, 37.972], [-75.795, 38.087], [-75.928, 38.169], [-75.859, 38.362], [-76.051, 38.28], [-76.265, 38.436], [-76.264, 38.6], [-76.017, 38.625], [-76.213, 38.758], [-76.341, 38.71], [-76.3, 38.818], [-76.168, 38.853], [-76.241, 38.943], [-76.331, 38.909], [-76.313, 39.009], [-76.186, 38.991], [-76.135, 39.082], [-76.217, 39.064], [-76.236, 39.192], [-76.074, 39.369], [-75.876, 39.376], [-76.003, 39.411], [-75.873, 39.511], [-75.97, 39.505], [-75.959, 39.585], [-76.063, 39.561], [-76.097, 39.433], [-76.216, 39.38], [-76.248, 39.439], [-76.276, 39.323], [-76.331, 39.404], [-76.421, 39.225], [-76.57, 39.269], [-76.428, 39.126], [-76.473, 39.031], [-76.559, 39.065], [-76.494, 38.945], [-76.501, 38.532], [-76.394, 38.369], [-76.572, 38.436], [-76.677, 38.612], [-76.669, 38.538], [-76.409, 38.268], [-76.341, 38.087], [-76.769, 38.263], [-76.868, 38.39], [-76.89, 38.292], [-77.001, 38.445], [-77.233, 38.408], [-77.221, 38.541], [-77.018, 38.778], [-77.03, 38.889], [-77.046, 38.776], [-77.26, 38.6], [-77.273, 38.352], [-77.047, 38.357], [-76.906, 38.197], [-76.55, 38.094], [-76.264, 37.894], [-76.344, 37.676], [-76.492, 37.682], [-76.94, 38.095], [-77.111, 38.166], [-76.549, 37.669], [-76.306, 37.571], [-76.368, 37.53], [-76.254, 37.431], [-76.263, 37.357], [-76.401, 37.386], [-76.454, 37.274], [-76.758, 37.505], [-76.611, 37.323], [-76.327, 37.149], [-76.283, 37.053], [-76.401, 36.991], [-76.631, 37.222], [-77.251, 37.329], [-76.672, 37.173], [-76.488, 36.897], [-76.244, 36.953], [-75.999, 36.913], [-75.758, 36.229], [-75.534, 35.819], [-75.81, 36.271], [-75.946, 36.659], [-75.993, 36.474], [-75.82, 36.113], [-76.148, 36.279], [-76.15, 36.146], [-76.271, 36.19], [-76.227, 36.116], [-76.384, 36.134], [-76.559, 36.015], [-76.679, 36.075], [-76.734, 36.229], [-76.726, 35.958], [-76.07, 35.97], [-76.084, 35.691], [-76.001, 35.722], [-75.979, 35.896], [-75.854, 35.96], [-75.759, 35.843], [-75.774, 35.647], [-76.174, 35.354], [-76.49, 35.397], [-76.577, 35.532], [-76.741, 35.431], [-77.04, 35.527], [-76.513, 35.27], [-76.628, 35.073], [-76.779, 34.99], [-77.07, 35.155], [-76.975, 35.025], [-76.745, 34.941], [-76.457, 34.989], [-76.362, 34.937], [-76.44, 34.843], [-76.733, 34.707], [-77.134, 34.708], [-77.296, 34.603], [-77.412, 34.731], [-77.38, 34.527], [-77.751, 34.285], [-77.928, 33.94], [-77.953, 34.169], [-78.013, 33.912], [-78.406, 33.918], [-78.841, 33.724], [-79.138, 33.406], [-79.194, 33.244], [-79.226, 33.405], [-79.276, 33.135], [-79.587, 33.001], [-79.615, 32.909], [-79.805, 32.787], [-79.933, 32.81], [-79.941, 32.667], [-80.363, 32.501], [-80.634, 32.512], [-80.474, 32.423], [-80.579, 32.287], [-80.647, 32.396], [-80.709, 32.337], [-80.803, 32.448], [-80.694, 32.216], [-80.849, 32.114], [-80.923, 31.945], [-81.113, 31.879], [-81.066, 31.788], [-81.198, 31.704], [-81.17, 31.61], [-81.259, 31.539], [-81.175, 31.531], [-81.381, 31.353], [-81.288, 31.264], [-81.365, 31.172], [-81.442, 31.2], [-81.46, 31.127], [-81.516, 30.802], [-81.25, 29.794], [-80.9, 29.05], [-80.524, 28.486], [-80.585, 28.272], [-80.457, 27.901], [-80.61, 28.178], [-80.607, 28.523], [-80.694, 28.345], [-80.688, 28.579], [-80.838, 28.758], [-80.749, 28.381], [-80.05, 26.808], [-80.126, 25.833], [-80.159, 25.878], [-80.367, 25.331], [-80.485, 25.23], [-81.11, 25.138], [-81.136, 25.31], [-80.94, 25.264], [-81.113, 25.367], [-81.365, 25.831], [-81.715, 25.983], [-81.867, 26.435], [-81.959, 26.49], [-81.829, 26.687], [-82.04, 26.552], [-82.067, 26.892], [-82.013, 26.962], [-82.181, 26.937], [-82.181, 26.84], [-82.29, 26.871], [-82.715, 27.5], [-82.406, 27.863], [-82.675, 27.964], [-82.611, 27.777], [-82.743, 27.709], [-82.844, 27.846], [-82.661, 28.486], [-82.651, 28.887], [-82.769, 29.052], [-83.29, 29.452], [-83.694, 29.926], [-84.044, 30.104], [-84.31, 30.065], [-84.383, 29.907], [-85.319, 29.68], [-85.414, 29.768], [-85.414, 29.842], [-85.315, 29.758], [-85.354, 29.876], [-85.676, 30.122], [-85.623, 30.117], [-85.663, 30.189], [-85.604, 30.287], [-85.791, 30.172], [-86.454, 30.399], [-86.124, 30.406], [-86.257, 30.493], [-87.201, 30.339], [-86.986, 30.431], [-86.998, 30.57], [-87.072, 30.5], [-87.171, 30.539], [-87.281, 30.339], [-87.476, 30.294], [-87.448, 30.394], [-87.622, 30.265], [-88.006, 30.231], [-87.79, 30.292], [-88.011, 30.694], [-88.135, 30.367], [-88.692, 30.355], [-88.905, 30.415], [-89.321, 30.345], [-89.588, 30.166], [-90.126, 30.369], [-90.225, 30.379], [-90.332, 30.278], [-90.413, 30.14], [-90.175, 30.029], [-89.737, 30.172], [-89.665, 30.117], [-89.815, 30.007], [-89.632, 29.904], [-89.494, 30.058], [-89.401, 30.046], [-89.354, 29.82], [-89.721, 29.619], [-89.514, 29.42], [-89.181, 29.336], [-89.016, 29.203], [-89.156, 29.017], [-89.236, 29.081], [-89.376, 28.981], [-89.354, 29.07], [-89.443, 29.194], [-89.792, 29.333], [-89.877, 29.458], [-90.159, 29.537], [-90.053, 29.337], [-90.101, 29.182], [-90.213, 29.105], [-90.379, 29.295], [-90.586, 29.272], [-90.751, 29.131], [-91.29, 29.289], [-91.151, 29.318], [-91.249, 29.564], [-91.331, 29.514], [-91.514, 29.555], [-91.672, 29.746], [-91.824, 29.751], [-91.893, 29.836], [-92.135, 29.699], [-92.084, 29.593], [-92.261, 29.557], [-92.671, 29.597], [-93.176, 29.779], [-93.826, 29.725], [-93.884, 29.81], [-93.769, 29.952], [-93.841, 29.98], [-93.946, 29.815], [-93.89, 29.689], [-94.1, 29.67], [-94.76, 29.384], [-94.526, 29.548], [-94.778, 29.548], [-94.742, 29.75], [-94.89, 29.677], [-95.023, 29.702], [-94.888, 29.371], [-95.273, 28.964], [-96.235, 28.489], [-96.011, 28.632], [-96.373, 28.657], [-96.449, 28.594], [-96.64, 28.709], [-96.525, 28.489], [-96.421, 28.457], [-96.676, 28.341], [-96.774, 28.422], [-96.84, 28.194], [-97.156, 28.144], [-97.141, 28.061], [-97.034, 28.094], [-97.073, 27.986], [-97.171, 27.88], [-97.431, 27.837], [-97.289, 27.671], [-97.439, 27.328], [-97.768, 27.458], [-97.692, 27.287], [-97.485, 27.237], [-97.555, 26.967], [-97.435, 26.486], [-97.14, 26.03], [-97.146, 25.961], [-97.376, 25.872], [-97.801, 26.042], [-98.275, 26.111], [-99.108, 26.447], [-99.23, 26.762], [-99.457, 27.057], [-99.505, 27.548], [-99.754, 27.73], [-100.296, 28.328], [-100.332, 28.503], [-100.755, 29.183], [-101.38, 29.743], [-102.343, 29.865], [-102.734, 29.644], [-102.892, 29.216], [-103.09, 29.042], [-103.258, 29.001], [-104.401, 29.574], [-104.622, 29.854], [-104.681, 30.134], [-104.918, 30.583], [-106.148, 31.451], [-106.445, 31.768], [-108.212, 31.779], [-108.214, 31.329], [-111.042, 31.324], [-114.836, 32.508], [-114.725, 32.715], [-117.128, 32.533], [-117.137, 32.649], [-117.243, 32.664], [-117.319, 33.1], [-117.467, 33.296], [-118.081, 33.722], [-118.41, 33.744], [-118.393, 33.858], [-118.506, 34.017], [-119.144, 34.112], [-119.268, 34.257], [-119.606, 34.418], [-120.481, 34.472], [-120.645, 34.58], [-120.659, 35.122], [-120.857, 35.21], [-120.9, 35.425], [-121.284, 35.676], [-121.877, 36.331], [-121.919, 36.572], [-121.79, 36.732], [-121.807, 36.851], [-121.881, 36.939], [-122.164, 36.991], [-122.395, 37.208], [-122.499, 37.543], [-122.514, 37.772], [-122.384, 37.789], [-122.37, 37.656], [-122.071, 37.478], [-122.385, 37.961], [-122.314, 38.007], [-121.525, 38.056], [-122.031, 38.124], [-122.154, 38.066], [-122.393, 38.145], [-122.484, 38.109], [-122.467, 37.838], [-122.521, 37.826], [-122.932, 38.055], [-122.999, 37.989], [-122.978, 38.227], [-122.877, 38.123], [-122.908, 38.197], [-123.121, 38.449], [-123.701, 38.907], [-123.82, 39.368], [-123.778, 39.515], [-123.833, 39.775], [-124.324, 40.252], [-124.372, 40.491], [-124.284, 40.711], [-124.22, 40.696], [-124.19, 40.772], [-124.072, 41.46], [-124.245, 41.788], [-124.212, 41.985], [-124.355, 42.123], [-124.406, 42.584], [-124.54, 42.813], [-124.347, 43.342], [-124.197, 43.423], [-124.288, 43.41], [-124.149, 43.692], [-123.929, 45.577], [-123.989, 46.219], [-123.221, 46.154], [-123.465, 46.271], [-124.073, 46.279], [-124.044, 46.605], [-123.946, 46.433], [-123.889, 46.66], [-124.072, 46.745], [-124.113, 46.863], [-123.843, 46.963], [-124.112, 47.035], [-124.139, 46.955], [-124.376, 47.659], [-124.663, 47.974], [-124.71, 48.38], [-123.976, 48.168], [-123.162, 48.155], [-122.974, 48.073], [-122.779, 48.138], [-122.657, 47.881], [-122.778, 47.738], [-122.821, 47.793], [-123.139, 47.386], [-122.922, 47.408], [-123.067, 47.4], [-123.049, 47.479], [-122.533, 47.92], [-122.524, 47.769], [-122.675, 47.612], [-122.557, 47.463], [-122.578, 47.293], [-122.708, 47.316], [-122.768, 47.218], [-122.828, 47.337], [-123.028, 47.139], [-122.702, 47.111], [-122.354, 47.372], [-122.402, 47.784], [-122.242, 48.011], [-122.416, 48.184], [-122.395, 48.084], [-122.517, 48.16], [-122.52, 48.229], [-122.409, 48.294], [-122.669, 48.465], [-122.497, 48.506], [-122.513, 48.669], [-122.562, 48.778], [-122.686, 48.794], [-122.789, 48.993], [-95.162, 48.992], [-95.155, 49.37], [-94.854, 49.305], [-94.803, 49.003], [-94.621, 48.743], [-94.055, 48.659], [-93.708, 48.525], [-93.378, 48.617], [-92.996, 48.612], [-92.501, 48.435], [-92.415, 48.277], [-92.172, 48.338], [-92.005, 48.302], [-91.518, 48.058], [-90.916, 48.209], [-90.744, 48.105], [-90.092, 48.118], [-89.901, 47.995], [-89.456, 47.996], [-88.378, 48.303], [-84.876, 46.9], [-84.779, 46.637], [-84.562, 46.457], [-84.149, 46.543], [-84.088, 46.227], [-83.978, 46.085], [-83.616, 46.117], [-83.469, 45.995], [-83.593, 45.817], [-82.551, 45.347], [-82.138, 43.571], [-82.408, 43.073], [-82.545, 42.625], [-83.073, 42.3], [-83.15, 42.142], [-83.142, 41.976], [-83.03, 41.833], [-82.69, 41.675], [-82.439, 41.675], [-81.278, 42.209], [-80.248, 42.366], [-79.037, 42.802], [-78.915, 42.909], [-79.026, 43.017], [-79.059, 43.278], [-79.172, 43.467], [-78.72, 43.625], [-76.82, 43.629], [-76.465, 44.058], [-76.151, 44.304], [-75.876, 44.417], [-75.179, 44.899], [-74.709, 45.004]]]]}}]}